{
  "norad_id": 44539,
  "name": "ZHUHAI-1 03E",
  "history": [
    {
      "epoch": "2026-03-28T22:00:24.456672Z",
      "apogee_km": 454.7245250895967,
      "perigee_km": 447.9660694082386,
      "latitude_deg": -2.556524656821907e-05,
      "longitude_deg": 78.86867774111735,
      "height_km": 452.19510881736426,
      "semi_major_axis_km": 6829.482297248917,
      "eccentricity": 0.0004948,
      "inclination_deg": 97.5489,
      "raan_deg": 235.3011,
      "arg_perigee_deg": 312.0893,
      "mean_anomaly_deg": 47.993,
      "mean_motion_rev_day": 15.38229325
    },
    {
      "epoch": "2026-03-29T04:15:06.261120Z",
      "apogee_km": 454.69473421274506,
      "perigee_km": 447.90763854312354,
      "latitude_deg": -1.0902645495504315e-06,
      "longitude_deg": -14.794081432468875,
      "height_km": 452.17134112047887,
      "semi_major_axis_km": 6829.4381863779345,
      "eccentricity": 0.0004969,
      "inclination_deg": 97.5489,
      "raan_deg": 235.569,
      "arg_perigee_deg": 311.4134,
      "mean_anomaly_deg": 48.6683,
      "mean_motion_rev_day": 15.38244228
    },
    {
      "epoch": "2026-03-30T05:13:51.320640Z",
      "apogee_km": 454.5233414879385,
      "perigee_km": 447.732320539978,
      "latitude_deg": -1.1105409336657485e-05,
      "longitude_deg": -29.43668604429411,
      "height_km": 452.18378151528447,
      "semi_major_axis_km": 6829.2648310139575,
      "eccentricity": 0.0004972,
      "inclination_deg": 97.5492,
      "raan_deg": 236.64,
      "arg_perigee_deg": 307.3357,
      "mean_anomaly_deg": 52.7434,
      "mean_motion_rev_day": 15.38302799
    },
    {
      "epoch": "2026-03-30T05:13:51.322368Z",
      "apogee_km": 454.52955000996644,
      "perigee_km": 447.726236323394,
      "latitude_deg": 9.02392715214818e-06,
      "longitude_deg": -29.436695916874488,
      "height_km": 452.17527883185426,
      "semi_major_axis_km": 6829.26489316668,
      "eccentricity": 0.0004981,
      "inclination_deg": 97.5492,
      "raan_deg": 236.64,
      "arg_perigee_deg": 307.4382,
      "mean_anomaly_deg": 52.6409,
      "mean_motion_rev_day": 15.38302778
    },
    {
      "epoch": "2026-03-30T14:35:52.321344Z",
      "apogee_km": 454.4596677845375,
      "perigee_km": 447.66324947850626,
      "latitude_deg": 5.049690016308807e-06,
      "longitude_deg": -169.924144069451,
      "height_km": 452.20338776955583,
      "semi_major_axis_km": 6829.198458631521,
      "eccentricity": 0.0004976,
      "inclination_deg": 97.5493,
      "raan_deg": 237.0414,
      "arg_perigee_deg": 305.5027,
      "mean_anomaly_deg": 54.5753,
      "mean_motion_rev_day": 15.38325225
    },
    {
      "epoch": "2026-03-30T20:50:32.734752Z",
      "apogee_km": 454.3944646021155,
      "perigee_km": 447.63565280961393,
      "latitude_deg": -1.945862746234545e-05,
      "longitude_deg": 96.4187153244075,
      "height_km": 452.2396600423355,
      "semi_major_axis_km": 6829.152058705865,
      "eccentricity": 0.00049485,
      "inclination_deg": 97.5494,
      "raan_deg": 237.3091,
      "arg_perigee_deg": 304.0236,
      "mean_anomaly_deg": 56.0538,
      "mean_motion_rev_day": 15.38340903
    },
    {
      "epoch": "2026-03-31T20:15:32.584032Z",
      "apogee_km": 454.25741468157594,
      "perigee_km": 447.48440463677525,
      "latitude_deg": -1.1036144365594824e-05,
      "longitude_deg": 105.21185694305348,
      "height_km": 452.30391178079844,
      "semi_major_axis_km": 6829.007909659175,
      "eccentricity": 0.0004959,
      "inclination_deg": 97.5497,
      "raan_deg": 238.3133,
      "arg_perigee_deg": 299.7956,
      "mean_anomaly_deg": 60.2795,
      "mean_motion_rev_day": 15.38389611
    },
    {
      "epoch": "2026-04-01T21:14:09.511584Z",
      "apogee_km": 454.11334387456554,
      "perigee_km": 447.3404766483691,
      "latitude_deg": 7.930006352286941e-05,
      "longitude_deg": 90.60321571320375,
      "height_km": 452.4003692340191,
      "semi_major_axis_km": 6828.863910261467,
      "eccentricity": 0.0004959,
      "inclination_deg": 97.5501,
      "raan_deg": 239.3843,
      "arg_perigee_deg": 295.2133,
      "mean_anomaly_deg": 64.8598,
      "mean_motion_rev_day": 15.38438271
    },
    {
      "epoch": "2026-04-02T20:39:03.519360Z",
      "apogee_km": 453.9105150369196,
      "perigee_km": 447.162419916358,
      "latitude_deg": -1.2591832679848652e-05,
      "longitude_deg": 99.42077619901848,
      "height_km": 452.4082423820146,
      "semi_major_axis_km": 6828.6734674766385,
      "eccentricity": 0.0004941,
      "inclination_deg": 97.5504,
      "raan_deg": 240.3885,
      "arg_perigee_deg": 291.6442,
      "mean_anomaly_deg": 68.4276,
      "mean_motion_rev_day": 15.38502629
    },
    {
      "epoch": "2026-04-02T22:12:42.950304Z",
      "apogee_km": 453.87879929375595,
      "perigee_km": 447.1351036730284,
      "latitude_deg": -1.5977269423294953e-05,
      "longitude_deg": 76.00927502725666,
      "height_km": 452.39951283737713,
      "semi_major_axis_km": 6828.643951483392,
      "eccentricity": 0.00049378,
      "inclination_deg": 97.5505,
      "raan_deg": 240.4554,
      "arg_perigee_deg": 291.2799,
      "mean_anomaly_deg": 68.7918,
      "mean_motion_rev_day": 15.38512604
    },
    {
      "epoch": "2026-04-03T20:03:53.812800Z",
      "apogee_km": 453.7288637056763,
      "perigee_km": 446.9440924578539,
      "latitude_deg": 4.1237373540602894e-05,
      "longitude_deg": 108.25393554189837,
      "height_km": 452.43203653471113,
      "semi_major_axis_km": 6828.473478081764,
      "eccentricity": 0.0004968,
      "inclination_deg": 97.5507,
      "raan_deg": 241.3928,
      "arg_perigee_deg": 287.515,
      "mean_anomaly_deg": 72.5552,
      "mean_motion_rev_day": 15.38570218
    }
  ]
}